SAOCOM 1A               
1 43641U 18076A   26076.79426781  .00000306  00000+0  45034-4 0  9993
2 43641  97.8894 264.8524 0001435  84.9938 275.1439 14.82148752402560
H-2A R/B                
1 43682U 18084L   26076.84669789  .00014309  00000+0  33790-3 0  9993
2 43682  98.8722 295.9805 0024767 357.3531   2.7576 15.41695729407032
SAOCOM 1B               
1 46265U 20059A   26073.04490030  .00000161  00000+0  26755-4 0  9993
2 46265  97.8899 260.2532 0001383  84.3427 275.7944 14.82151938299390
CSS (TIANHE)            
1 48274U 21035A   26076.58544780  .00021250  00000+0  24801-3 0  9995
2 48274  41.4671 160.1044 0006145 321.5629  38.4771 15.61097750278840
COSMOS 2550             
1 48865U 21056A   26076.14655870 -.00000204  00000+0 -37996-6 0  9999
2 48865  67.1448  18.3252 0008297 268.8880  91.1323 15.33878800264600
CZ-2C R/B               
1 52794U 22058K   26075.90461186  .00031172  00000+0  44728-3 0  9990
2 52794  50.1879 281.1612 0041966 231.5981 128.1218 15.54771257211253
CZ-2C R/B               
1 54039U 22132E   26076.76269701  .00035274  00000+0  39166-3 0  9998
2 54039  97.2954  80.3290 0019825  65.9222 294.4107 15.62599279191634
GSLV R/B                
1 54149U 22138AN  26076.20850182  .00001917  00000+0  16397-3 0  9992
2 54149  87.3883 163.8462 0023762 121.7083 238.6470 14.96829228185054
XRISM                   
1 57800U 23137A   26076.43275825  .00003948  00000+0  22124-3 0  9990
2 57800  31.0006 233.5757 0007920 116.8888 243.2561 15.11587262138960
ACS3                    
1 59588U 24077B   26076.84928273  .00019616  00000+0  15619-1 0  9994
2 59588  97.2024  16.1276 0066949  57.3445 303.4155 13.89976735 95335
SZ-21 MODULE            
1 66515U 25246C   26076.58482274  .00029162  00000+0  24561-3 0  9993
2 66515  41.4741 154.7368 0000592 302.6268  57.4517 15.69175030 19313
